NAVSTAR 48 (USA 151)    
1 26407U 00040A   26191.26190744  .00000110  00000+0  00000+0 0  9995
2 26407  54.8491 214.2457 0120597 302.6821  81.8231  2.00557788190413
NAVSTAR 51 (USA 166)    
1 27663U 03005A   26191.15416856  .00000110  00000+0  00000+0 0  9997
2 27663  54.8796 214.0562 0148192  53.1533  29.7363  2.00559273171776
NAVSTAR 54 (USA 177)    
1 28190U 04009A   26191.29724102 -.00000012  00000+0  00000+0 0  9991
2 28190  54.8105 274.7528 0117019 174.1119 164.7266  2.00553861163409
NAVSTAR 56 (USA 180)    
1 28474U 04045A   26191.26664860 -.00000080  00000+0  00000+0 0  9992
2 28474  55.1214 323.9670 0170095 316.9414  64.8542  2.00556809158890
NAVSTAR 57 (USA 183)    
1 28874U 05038A   26191.29576271 -.00000006  00000+0  00000+0 0  9998
2 28874  54.8594 272.2441 0128168 296.3525  70.9409  2.00564004152307
INMARSAT 4-F2           
1 28899U 05044A   26190.81106506 -.00000253  00000+0  00000+0 0  9993
2 28899   5.1235  43.6494 0002898  59.0214 260.5450  1.00271241 75745
NAVSTAR 58 (USA 190)    
1 29486U 06042A   26190.11781788  .00000066  00000+0  00000+0 0  9990
2 29486  54.7126 150.4682 0107015  54.9780  80.6146  2.00568543144837
NAVSTAR 59 (USA 192)    
1 29601U 06052A   26190.85495700  .00000111  00000+0  00000+0 0  9998
2 29601  54.9328 213.1076 0084811  90.9838 270.0514  2.00559354143864
NAVSTAR 60 (USA 196)    
1 32260U 07047A   26190.16326571 -.00000040  00000+0  00000+0 0  9993
2 32260  54.1110  79.1599 0167587  87.8540 274.1065  2.00554162137251
COSMOS 2433 [GLONASS-M] 
1 32275U 07052A   26189.97073473 -.00000055  00000+0  00000+0 0  9998
2 32275  65.5635 315.2012 0003283 202.4684 157.5248  2.13104372145529
COSMOS 2432 [GLONASS-M] 
1 32276U 07052B   26191.16860992 -.00000060  00000+0  00000+0 0  9999
2 32276  65.5788 315.2892 0007467 323.9576 178.8039  2.13103214145575
NAVSTAR 61 (USA 199)    
1 32384U 07062A   26190.49495134 -.00000012  00000+0  00000+0 0  9994
2 32384  55.0139 273.2551 0036015 167.1073 200.1944  2.00561271135968
COSMOS 2434 [GLONASS-M] 
1 32393U 07065A   26191.17907138  .00000121  00000+0  00000+0 0  9995
2 32393  64.3199 191.1401 0001266 327.2015 129.5148  2.13101374144265
COSMOS 2436 [GLONASS-M] 
1 32395U 07065C   26191.32538176  .00000120  00000+0  00000+0 0  9995
2 32395  64.3284 191.2075 0017299 353.5883 347.5855  2.13100111144218
NAVSTAR 62 (USA 201)    
1 32711U 08012A   26191.06964301  .00000051  00000+0  00000+0 0  9997
2 32711  54.4996 149.0107 0211636 248.1017 109.6111  2.00572959134216
NAVSTAR 64 (USA 206)    
1 35752U 09043A   26191.23487374 -.00000053  00000+0  00000+0 0  9992
2 35752  56.2247  26.5474 0053760  84.1723  43.1557  2.00552975123820
COSMOS 2456 [GLONASS-M] 
1 36111U 09070A   26190.63071153 -.00000025  00000+0  00000+0 0  9998
2 36111  65.0240  70.2070 0003790 337.3847 216.9243  2.13103847128907
COSMOS 2457 [GLONASS-M] 
1 36112U 09070B   26190.44876385 -.00000025  00000+0  00000+0 0  9998
2 36112  65.0094  70.0567 0003847 122.9338  58.9933  2.13101278128906
COSMOS 2460 [GLONASS-M] 
1 36402U 10007C   26189.97123418 -.00000055  00000+0  00000+0 0  9993
2 36402  65.4066 313.7300 0001810 135.0435  42.4983  2.13101759127191
NAVSTAR 65 (USA 213)    
1 36585U 10022A   26190.48033330  .00000113  00000+0  00000+0 0  9997
2 36585  54.2690 207.6640 0126615  66.1496 355.9932  2.00563450118048
BEIDOU-2 IGSO-1         
1 36828U 10036A   26188.62304566 -.00000058  00000+0  00000+0 0  9996
2 36828  54.3062 162.7756 0059224 225.1869 229.2421  1.00266308 58302
BEIDOU-2 G4             
1 37210U 10057A   26190.88543819 -.00000104  00000+0  00000+0 0  9994
2 37210   3.6994  68.8084 0005405 185.0659 152.6506  1.00270334 57511
BEIDOU-2 IGSO-2         
1 37256U 10068A   26190.66146130 -.00000201  00000+0  00000+0 0  9995
2 37256  47.5066 271.5534 0056763 213.3417 149.1450  1.00275795 57022
BEIDOU-2 IGSO-3         
1 37384U 11013A   26190.51857615 -.00000172  00000+0  00000+0 0  9996
2 37384  62.4382  39.9419 0035198 183.2390 357.7550  1.00261852 55882
GSAT-8                  
1 37605U 11022A   26191.22136356  .00000093  00000+0  00000+0 0  9994
2 37605   2.1876  81.5454 0002647 165.7862 175.5805  1.00271522 53445
BEIDOU-2 IGSO-4         
1 37763U 11038A   26190.90650205  .00000037  00000+0  00000+0 0  9992
2 37763  54.6042 165.4715 0160178 231.4223 311.4635  1.00280644 54870
GSAT0101 (GALILEO-PFM)  
1 37846U 11060A   26189.55204449 -.00000074  00000+0  00000+0 0  9995
2 37846  56.9869 341.1826 0002415  60.6868 299.3373  1.70475585 91484
GSAT0102 (GALILEO-FM2)  
1 37847U 11060B   26189.47708995 -.00000074  00000+0  00000+0 0  9992
2 37847  56.9877 341.1851 0002423  11.7755 347.8886  1.70475862 91489
COSMOS 2476 [GLONASS-M] 
1 37867U 11064A   26191.04288087 -.00000024  00000+0  00000+0 0  9994
2 37867  65.2823  72.1003 0022271 236.4101 182.4236  2.13103819114250
COSMOS 2477 [GLONASS-M] 
1 37868U 11064B   26191.34812711 -.00000024  00000+0  00000+0 0  9995
2 37868  65.2891  72.1697 0019257 237.2409 236.0411  2.13103071114256
COSMOS 2475 [GLONASS-M] 
1 37869U 11064C   26189.17546069 -.00000023  00000+0  00000+0 0  9993
2 37869  65.2947  72.2646 0025048 251.6541 309.8644  2.13101995114212
